[
    {
        "Altitude(m)": 611965.1678031924,
        "Argument of Periapsis(deg)": 0.0,
        "Eccentricity": 0.0,
        "Inclination(deg)": 60.0,
        "Latitude(deg)": 59.1401083573473,
        "Longitude(deg)": -96.03015820218786,
        "Mean Anomaly(deg)": -278.1818,
        "RAAN(deg)": 290.0,
        "Satellite Name": "Test1 1281",
        "Satellite Number": 1281,
        "Semi-Major Axis(m)": 6980739.136638005,
        "Time(s)": 0
    },
    {
        "Altitude(m)": 611995.7932656633,
        "Argument of Periapsis(deg)": 0.00010418945913296404,
        "Eccentricity": 0.0,
        "Inclination(deg)": 60.0,
        "Latitude(deg)": 59.28320807151946,
        "Longitude(deg)": -94.89679765737102,
        "Mean Anomaly(deg)": -277.5616938545382,
        "RAAN(deg)": 289.99957995086027,
        "Satellite Name": "Test1 1281",
        "Satellite Number": 1281,
        "Semi-Major Axis(m)": 6980739.136638005,
        "Time(s)": 10
    },
    {
        "Altitude(m)": 612024.0778484873,
        "Argument of Periapsis(deg)": 0.0002083789182659281,
        "Eccentricity": 0.0,
        "Inclination(deg)": 60.0,
        "Latitude(deg)": 59.415625756423545,
        "Longitude(deg)": -93.75391364832072,
        "Mean Anomaly(deg)": -276.9415877090764,
        "RAAN(deg)": 289.99915990172053,
        "Satellite Name": "Test1 1281",
        "Satellite Number": 1281,
        "Semi-Major Axis(m)": 6980739.136638005,
        "Time(s)": 20
    },
    {
        "Altitude(m)": 612050.0053328304,
        "Argument of Periapsis(deg)": 0.00031256837739889213,
        "Eccentricity": 0.0,
        "Inclination(deg)": 60.0,
        "Latitude(deg)": 59.53722198821787,
        "Longitude(deg)": -92.60213417838796,
        "Mean Anomaly(deg)": -276.32148156361444,
        "RAAN(deg)": 289.9987398525808,
        "Satellite Name": "Test1 1281",
        "Satellite Number": 1281,
        "Semi-Major Axis(m)": 6980739.136638005,
        "Time(s)": 30
    },
    {
        "Altitude(m)": 612073.5608601001,
        "Argument of Periapsis(deg)": 0.0004167578365318562,
        "Eccentricity": 0.0,
        "Inclination(deg)": 60.0,
        "Latitude(deg)": 59.64786659929524,
        "Longitude(deg)": -91.44212286603457,
        "Mean Anomaly(deg)": -275.7013754181527,
        "RAAN(deg)": 289.99831980344106,
        "Satellite Name": "Test1 1281",
        "Satellite Number": 1281,
        "Semi-Major Axis(m)": 6980739.136638005,
        "Time(s)": 40
    },
    {
        "Altitude(m)": 612094.7309389606,
        "Argument of Periapsis(deg)": 0.0005209472956648203,
        "Eccentricity": 0.0,
        "Inclination(deg)": 60.0,
        "Latitude(deg)": 59.74743933141738,
        "Longitude(deg)": -90.27457808590636,
        "Mean Anomaly(deg)": -275.0812692726908,
        "RAAN(deg)": 289.9978997543013,
        "Satellite Name": "Test1 1281",
        "Satellite Number": 1281,
        "Semi-Major Axis(m)": 6980739.136638005,
        "Time(s)": 50
    },
    {
        "Altitude(m)": 612113.5034516891,
        "Argument of Periapsis(deg)": 0.0006251367547977843,
        "Eccentricity": 0.0,
        "Inclination(deg)": 60.0,
        "Latitude(deg)": 59.83583045528534,
        "Longitude(deg)": -89.10023026411794,
        "Mean Anomaly(deg)": -274.461163127229,
        "RAAN(deg)": 289.99747970516154,
        "Satellite Name": "Test1 1281",
        "Satellite Number": 1281,
        "Semi-Major Axis(m)": 6980739.136638005,
        "Time(s)": 60
    },
    {
        "Altitude(m)": 612129.8676598801,
        "Argument of Periapsis(deg)": 0.0007293262139307483,
        "Eccentricity": 0.0,
        "Inclination(deg)": 60.0,
        "Latitude(deg)": 59.912941349483745,
        "Longitude(deg)": -87.91983885117351,
        "Mean Anomaly(deg)": -273.84105698176717,
        "RAAN(deg)": 289.9970596560218,
        "Satellite Name": "Test1 1281",
        "Satellite Number": 1281,
        "Semi-Major Axis(m)": 6980739.136638005,
        "Time(s)": 70
    },
    {
        "Altitude(m)": 612143.8142095074,
        "Argument of Periapsis(deg)": 0.0008335156730637124,
        "Eccentricity": 0.0,
        "Inclination(deg)": 60.0,
        "Latitude(deg)": 59.978685031973534,
        "Longitude(deg)": -86.7341905015446,
        "Mean Anomaly(deg)": -273.22095083630535,
        "RAAN(deg)": 289.99663960688207,
        "Satellite Name": "Test1 1281",
        "Satellite Number": 1281,
        "Semi-Major Axis(m)": 6980739.136638005,
        "Time(s)": 80
    },
    {
        "Altitude(m)": 612155.3351353495,
        "Argument of Periapsis(deg)": 0.0009377051321966765,
        "Eccentricity": 0.0,
        "Inclination(deg)": 60.0,
        "Latitude(deg)": 60.032986637667506,
        "Longitude(deg)": -85.54409545599236,
        "Mean Anomaly(deg)": -272.60084469084353,
        "RAAN(deg)": 289.99621955774234,
        "Satellite Name": "Test1 1281",
        "Satellite Number": 1281,
        "Semi-Major Axis(m)": 6980739.136638005,
        "Time(s)": 90
    },
    {
        "Altitude(m)": 612164.4238647065,
        "Argument of Periapsis(deg)": 0.0010418945913296407,
        "Eccentricity": 0.0,
        "Inclination(deg)": 60.0,
        "Latitude(deg)": 60.07578383612131,
        "Longitude(deg)": -84.35038366680176,
        "Mean Anomaly(deg)": -271.9807385453817,
        "RAAN(deg)": 289.9957995086026,
        "Satellite Name": "Test1 1281",
        "Satellite Number": 1281,
        "Semi-Major Axis(m)": 6980739.136638005,
        "Time(s)": 100
    },
    {
        "Altitude(m)": 612171.075220513,
        "Argument of Periapsis(deg)": 0.0011460840504626045,
        "Eccentricity": 0.0,
        "Inclination(deg)": 60.0,
        "Latitude(deg)": 60.10702718399727,
        "Longitude(deg)": -83.15390221120295,
        "Mean Anomaly(deg)": -271.3606323999199,
        "RAAN(deg)": 289.99537945946287,
        "Satellite Name": "Test1 1281",
        "Satellite Number": 1281,
        "Semi-Major Axis(m)": 6980739.136638005,
        "Time(s)": 110
    },
    {
        "Altitude(m)": 612175.2854237768,
        "Argument of Periapsis(deg)": 0.0012502735095955685,
        "Eccentricity": 0.0,
        "Inclination(deg)": 60.0,
        "Latitude(deg)": 60.126680407706615,
        "Longitude(deg)": -81.95551100422783,
        "Mean Anomaly(deg)": -270.7405262544581,
        "RAAN(deg)": 289.99495941032313,
        "Satellite Name": "Test1 1281",
        "Satellite Number": 1281,
        "Semi-Major Axis(m)": 6980739.136638005,
        "Time(s)": 120
    },
    {
        "Altitude(m)": 612177.0520953448,
        "Argument of Periapsis(deg)": 0.0013544629687285324,
        "Eccentricity": 0.0,
        "Inclination(deg)": 60.0,
        "Latitude(deg)": 60.1347206124889,
        "Longitude(deg)": -80.75607836476756,
        "Mean Anomaly(deg)": -270.1204201089962,
        "RAAN(deg)": 289.99453936118334,
        "Satellite Name": "Test1 1281",
        "Satellite Number": 1281,
        "Semi-Major Axis(m)": 6980739.136638005,
        "Time(s)": 130
    },
    {
        "Altitude(m)": 612176.3742570272,
        "Argument of Periapsis(deg)": 0.0014586524278614966,
        "Eccentricity": 0.0,
        "Inclination(deg)": 60.0,
        "Latitude(deg)": 60.13113841512788,
        "Longitude(deg)": -79.55647799170809,
        "Mean Anomaly(deg)": -269.5003139635344,
        "RAAN(deg)": 289.9941193120436,
        "Satellite Name": "Test1 1281",
        "Satellite Number": 1281,
        "Semi-Major Axis(m)": 6980739.136638005,
        "Time(s)": 140
    },
    {
        "Altitude(m)": 612173.2523320533,
        "Argument of Periapsis(deg)": 0.0015628418869944607,
        "Eccentricity": 0.0,
        "Inclination(deg)": 60.0,
        "Latitude(deg)": 60.11593799851316,
        "Longitude(deg)": -78.35758437061446,
        "Mean Anomaly(deg)": -268.88020781807256,
        "RAAN(deg)": 289.99369926290393,
        "Satellite Name": "Test1 1281",
        "Satellite Number": 1281,
        "Semi-Major Axis(m)": 6980739.136638005,
        "Time(s)": 150
    },
    {
        "Altitude(m)": 612167.6881448661,
        "Argument of Periapsis(deg)": 0.0016670313461274247,
        "Eccentricity": 0.0,
        "Inclination(deg)": 60.0,
        "Latitude(deg)": 60.089137087307336,
        "Longitude(deg)": -77.1602681712649,
        "Mean Anomaly(deg)": -268.2601016726107,
        "RAAN(deg)": 289.99327921376414,
        "Satellite Name": "Test1 1281",
        "Satellite Number": 1281,
        "Semi-Major Axis(m)": 6980739.136638005,
        "Time(s)": 160
    },
    {
        "Altitude(m)": 612159.6849202662,
        "Argument of Periapsis(deg)": 0.0017712208052603888,
        "Eccentricity": 0.0,
        "Inclination(deg)": 60.0,
        "Latitude(deg)": 60.05076684504882,
        "Longitude(deg)": -75.9653931965323,
        "Mean Anomaly(deg)": -267.6399955271488,
        "RAAN(deg)": 289.9928591646244,
        "Satellite Name": "Test1 1281",
        "Satellite Number": 1281,
        "Semi-Major Axis(m)": 6980739.136638005,
        "Time(s)": 170
    },
    {
        "Altitude(m)": 612149.2472818842,
        "Argument of Periapsis(deg)": 0.001875410264393353,
        "Eccentricity": 0.0,
        "Inclination(deg)": 60.0,
        "Latitude(deg)": 60.00087169408258,
        "Longitude(deg)": -74.77381190367389,
        "Mean Anomaly(deg)": -267.01988938168705,
        "RAAN(deg)": 289.9924391154847,
        "Satellite Name": "Test1 1281",
        "Satellite Number": 1281,
        "Semi-Major Axis(m)": 6980739.136638005,
        "Time(s)": 180
    },
    {
        "Altitude(m)": 612136.3812499958,
        "Argument of Periapsis(deg)": 0.0019795997235263173,
        "Eccentricity": 0.0,
        "Inclination(deg)": 60.0,
        "Latitude(deg)": 59.93950906073833,
        "Longitude(deg)": -73.58636105585948,
        "Mean Anomaly(deg)": -266.3997832362252,
        "RAAN(deg)": 289.99201906634494,
        "Satellite Name": "Test1 1281",
        "Satellite Number": 1281,
        "Semi-Major Axis(m)": 6980739.136638005,
        "Time(s)": 190
    }
]